start=new Date('2023-01-21T00:00:00.000Z').valueOf();
sats=[{"FILE":"3755563","ELEMENT_SET_NO":"999","BSTAR":"0.00162690000000","PERIAPSIS":"539.112","REV_AT_EPOCH":"6706","DECAY_DATE":null,"MEAN_MOTION_DDOT":"0.0000000000000","SITE":"AFETR","GP_ID":"223515161","MEAN_ANOMALY":"260.5770","TLE_LINE1":"1 49455U 21104AZ  23020.16536284  .00025697  00000-0  16269-2 0  9992","MEAN_MOTION":"15.08837420","ECCENTRICITY":"0.00009270","MEAN_MOTION_DOT":"0.00025697","EPOCH":"2023-01-20T03:58:07.349376","CLASSIFICATION_TYPE":"U","ARG_OF_PERICENTER":"99.5327","TIME_SYSTEM":"UTC","INCLINATION":"53.2149","RCS_SIZE":"LARGE","LAUNCH_DATE":"2021-11-13","PERIOD":"95.438","RA_OF_ASC_NODE":"317.1011","CENTER_NAME":"EARTH","SEMIMAJOR_AXIS":"6917.888","OBJECT_ID":"2021-104AZ","COUNTRY_CODE":"US","EPHEMERIS_TYPE":"0","NORAD_CAT_ID":"49455","TLE_LINE2":"2 49455  53.2149 317.1011 0000927  99.5327 260.5770 15.08837420 67064","OBJECT_TYPE":"PAYLOAD","REF_FRAME":"TEME","MEAN_ELEMENT_THEORY":"SGP4","APOAPSIS":"540.395","OBJECT_NAME":"STARLINK-3145"},{"CLASSIFICATION_TYPE":"U","TIME_SYSTEM":"UTC","ARG_OF_PERICENTER":"106.2755","INCLINATION":"53.2172","MEAN_MOTION_DOT":"0.00010023","EPOCH":"2023-01-20T18:27:12.632544","TLE_LINE1":"1 49456U 21104BA  23020.76889621  .00010023  00000-0  64704-3 0  9990","ECCENTRICITY":"0.00016730","MEAN_MOTION":"15.08833724","GP_ID":"223551366","MEAN_ANOMALY":"253.8422","MEAN_MOTION_DDOT":"0.0000000000000","SITE":"AFETR","FILE":"3756012","ELEMENT_SET_NO":"999","BSTAR":"0.00064704000000","PERIAPSIS":"538.607","REV_AT_EPOCH":"6715","DECAY_DATE":null,"APOAPSIS":"540.922","OBJECT_NAME":"STARLINK-3124","REF_FRAME":"TEME","MEAN_ELEMENT_THEORY":"SGP4","NORAD_CAT_ID":"49456","TLE_LINE2":"2 49456  53.2172 314.3869 0001673 106.2755 253.8422 15.08833724 67153","OBJECT_TYPE":"PAYLOAD","COUNTRY_CODE":"US","EPHEMERIS_TYPE":"0","RA_OF_ASC_NODE":"314.3869","CENTER_NAME":"EARTH","SEMIMAJOR_AXIS":"6917.900","OBJECT_ID":"2021-104BA","RCS_SIZE":"LARGE","LAUNCH_DATE":"2021-11-13","PERIOD":"95.438"},{"EPHEMERIS_TYPE":"0","COUNTRY_CODE":"US","CENTER_NAME":"EARTH","OBJECT_ID":"2021-104BB","SEMIMAJOR_AXIS":"6917.918","RA_OF_ASC_NODE":"317.4145","PERIOD":"95.438","RCS_SIZE":"LARGE","LAUNCH_DATE":"2021-11-13","APOAPSIS":"540.766","OBJECT_NAME":"STARLINK-3132","REF_FRAME":"TEME","MEAN_ELEMENT_THEORY":"SGP4","NORAD_CAT_ID":"49457","OBJECT_TYPE":"PAYLOAD","TLE_LINE2":"2 49457  53.2140 317.4145 0001421  78.5190 281.5961 15.08827677 65980","GP_ID":"223547629","MEAN_ANOMALY":"281.5961","SITE":"AFETR","MEAN_MOTION_DDOT":"0.0000000000000","PERIAPSIS":"538.800","BSTAR":"-0.00010583000000","REV_AT_EPOCH":"6598","DECAY_DATE":null,"FILE":"3755973","ELEMENT_SET_NO":"999","ARG_OF_PERICENTER":"78.5190","CLASSIFICATION_TYPE":"U","TIME_SYSTEM":"UTC","INCLINATION":"53.2140","EPOCH":"2023-01-20T02:17:27.286944","MEAN_MOTION_DOT":"-0.00001971","ECCENTRICITY":"0.00014210","MEAN_MOTION":"15.08827677","TLE_LINE1":"1 49457U 21104BB  23020.09545471 -.00001971  00000-0 -10583-3 0  9999"},{"MEAN_ELEMENT_THEORY":"SGP4","REF_FRAME":"TEME","TLE_LINE2":"2 49458  53.2156 317.3705 0001639 101.0089 259.1087 15.08842559 67066","OBJECT_TYPE":"PAYLOAD","NORAD_CAT_ID":"49458","OBJECT_NAME":"STARLINK-3156","APOAPSIS":"540.871","RCS_SIZE":"LARGE","LAUNCH_DATE":"2021-11-13","PERIOD":"95.437","COUNTRY_CODE":"US","EPHEMERIS_TYPE":"0","RA_OF_ASC_NODE":"317.3705","OBJECT_ID":"2021-104BC","SEMIMAJOR_AXIS":"6917.873","CENTER_NAME":"EARTH","TLE_LINE1":"1 49458U 21104BC  23020.10281002  .00034745  00000-0  21903-2 0  9999","ECCENTRICITY":"0.00016390","MEAN_MOTION":"15.08842559","INCLINATION":"53.2156","CLASSIFICATION_TYPE":"U","ARG_OF_PERICENTER":"101.0089","TIME_SYSTEM":"UTC","MEAN_MOTION_DOT":"0.00034745","EPOCH":"2023-01-20T02:28:02.785728","ELEMENT_SET_NO":"999","FILE":"3755310","DECAY_DATE":null,"REV_AT_EPOCH":"6706","PERIAPSIS":"538.604","BSTAR":"0.00219030000000","MEAN_ANOMALY":"259.1087","GP_ID":"223508502","MEAN_MOTION_DDOT":"0.0000000000000","SITE":"AFETR"},{"MEAN_MOTION":"15.08831855","ECCENTRICITY":"0.00016900","TLE_LINE1":"1 49459U 21104BD  23020.09177252 -.00002157  00000-0 -11746-3 0  9998","INCLINATION":"53.2156","ARG_OF_PERICENTER":"74.6183","CLASSIFICATION_TYPE":"U","TIME_SYSTEM":"UTC","EPOCH":"2023-01-20T02:12:09.145728","MEAN_MOTION_DOT":"-0.00002157","REV_AT_EPOCH":"6705","DECAY_DATE":null,"PERIAPSIS":"538.601","BSTAR":"-0.00011746000000","ELEMENT_SET_NO":"999","FILE":"3755311","MEAN_ANOMALY":"285.4996","GP_ID":"223508964","SITE":"AFETR","MEAN_MOTION_DDOT":"0.0000000000000","MEAN_ELEMENT_THEORY":"SGP4","REF_FRAME":"TEME","TLE_LINE2":"2 49459  53.2156 317.4319 0001690  74.6183 285.4996 15.08831855 67053","OBJECT_TYPE":"PAYLOAD","NORAD_CAT_ID":"49459","OBJECT_NAME":"STARLINK-3141","APOAPSIS":"540.939","PERIOD":"95.438","RCS_SIZE":"LARGE","LAUNCH_DATE":"2021-11-13","EPHEMERIS_TYPE":"0","COUNTRY_CODE":"US","OBJECT_ID":"2021-104BD","SEMIMAJOR_AXIS":"6917.905","CENTER_NAME":"EARTH","RA_OF_ASC_NODE":"317.4319"},{"SITE":"AFETR","MEAN_MOTION_DDOT":"0.0000000000000","GP_ID":"223554719","MEAN_ANOMALY":"243.4633","PERIAPSIS":"539.093","BSTAR":"0.00194180000000","DECAY_DATE":null,"REV_AT_EPOCH":"6713","FILE":"3756172","ELEMENT_SET_NO":"999","EPOCH":"2023-01-20T13:14:33.318528","MEAN_MOTION_DOT":"0.00030754","ARG_OF_PERICENTER":"116.6454","CLASSIFICATION_TYPE":"U","TIME_SYSTEM":"UTC","INCLINATION":"53.2155","MEAN_MOTION":"15.08843102","ECCENTRICITY":"0.00009290","TLE_LINE1":"1 49460U 21104BE  23020.55177452  .00030754  00000-0  19418-2 0  9998","CENTER_NAME":"EARTH","OBJECT_ID":"2021-104BE","SEMIMAJOR_AXIS":"6917.871","RA_OF_ASC_NODE":"315.3668","EPHEMERIS_TYPE":"0","COUNTRY_CODE":"US","PERIOD":"95.437","LAUNCH_DATE":"2021-11-13","RCS_SIZE":"LARGE","APOAPSIS":"540.379","OBJECT_NAME":"STARLINK-3140","NORAD_CAT_ID":"49460","TLE_LINE2":"2 49460  53.2155 315.3668 0000929 116.6454 243.4633 15.08843102 67139","OBJECT_TYPE":"PAYLOAD","REF_FRAME":"TEME","MEAN_ELEMENT_THEORY":"SGP4"},{"ECCENTRICITY":"0.00012450","MEAN_MOTION":"15.08839596","TLE_LINE1":"1 49724U 21115A   23020.33469399  .00011847  00000-0  76116-3 0  9994","TIME_SYSTEM":"UTC","CLASSIFICATION_TYPE":"U","ARG_OF_PERICENTER":"83.5107","INCLINATION":"53.2139","EPOCH":"2023-01-20T08:01:57.560736","MEAN_MOTION_DOT":"0.00011847","PERIAPSIS":"538.885","BSTAR":"0.00076116000000","REV_AT_EPOCH":"6277","DECAY_DATE":null,"FILE":"3755973","ELEMENT_SET_NO":"999","GP_ID":"223547139","MEAN_ANOMALY":"276.6027","SITE":"AFETR","MEAN_MOTION_DDOT":"0.0000000000000","REF_FRAME":"TEME","MEAN_ELEMENT_THEORY":"SGP4","NORAD_CAT_ID":"49724","TLE_LINE2":"2 49724  53.2139 246.3364 0001245  83.5107 276.6027 15.08839596 62771","OBJECT_TYPE":"PAYLOAD","APOAPSIS":"540.608","OBJECT_NAME":"STARLINK-3219","PERIOD":"95.438","LAUNCH_DATE":"2021-12-02","RCS_SIZE":"LARGE","EPHEMERIS_TYPE":"0","COUNTRY_CODE":"US","CENTER_NAME":"EARTH","OBJECT_ID":"2021-115A","SEMIMAJOR_AXIS":"6917.882","RA_OF_ASC_NODE":"246.3364"},{"NORAD_CAT_ID":"49725","TLE_LINE2":"2 49725  53.2116 247.6848 0001807  77.2800 282.8394 15.08839905 62738","OBJECT_TYPE":"PAYLOAD","REF_FRAME":"TEME","MEAN_ELEMENT_THEORY":"SGP4","APOAPSIS":"540.996","OBJECT_NAME":"STARLINK-3218","PERIOD":"95.438","RCS_SIZE":"LARGE","LAUNCH_DATE":"2021-12-02","CENTER_NAME":"EARTH","SEMIMAJOR_AXIS":"6917.881","OBJECT_ID":"2021-115B","RA_OF_ASC_NODE":"247.6848","EPHEMERIS_TYPE":"0","COUNTRY_CODE":"US","ECCENTRICITY":"0.00018070","MEAN_MOTION":"15.08839905","TLE_LINE1":"1 49725U 21115B   23020.03661079  .00002131  00000-0  15193-3 0  9995","EPOCH":"2023-01-20T00:52:43.172256","MEAN_MOTION_DOT":"0.00002131","ARG_OF_PERICENTER":"77.2800","CLASSIFICATION_TYPE":"U","TIME_SYSTEM":"UTC","INCLINATION":"53.2116","PERIAPSIS":"538.496","BSTAR":"0.00015193000000","REV_AT_EPOCH":"6273","DECAY_DATE":null,"FILE":"3755973","ELEMENT_SET_NO":"999","SITE":"AFETR","MEAN_MOTION_DDOT":"0.0000000000000","GP_ID":"223547389","MEAN_ANOMALY":"282.8394"},{"INCLINATION":"53.2136","ARG_OF_PERICENTER":"93.5268","CLASSIFICATION_TYPE":"U","TIME_SYSTEM":"UTC","EPOCH":"2023-01-20T22:12:25.691040","MEAN_MOTION_DOT":"0.00011606","MEAN_MOTION":"15.08846823","ECCENTRICITY":"0.00016330","TLE_LINE1":"1 49726U 21115C   23020.92529735  .00011606  00000-0  74596-3 0  9995","MEAN_ANOMALY":"266.5911","GP_ID":"223556263","SITE":"AFETR","MEAN_MOTION_DDOT":"0.0000000000000","DECAY_DATE":null,"REV_AT_EPOCH":"6383","PERIAPSIS":"538.595","BSTAR":"0.00074596000000","ELEMENT_SET_NO":"999","FILE":"3756246","OBJECT_NAME":"STARLINK-3237","APOAPSIS":"540.854","MEAN_ELEMENT_THEORY":"SGP4","REF_FRAME":"TEME","TLE_LINE2":"2 49726  53.2136 253.6885 0001633  93.5268 266.5911 15.08846823 63838","OBJECT_TYPE":"PAYLOAD","NORAD_CAT_ID":"49726","EPHEMERIS_TYPE":"0","COUNTRY_CODE":"US","OBJECT_ID":"2021-115C","SEMIMAJOR_AXIS":"6917.860","CENTER_NAME":"EARTH","RA_OF_ASC_NODE":"253.6885","PERIOD":"95.437","RCS_SIZE":"LARGE","LAUNCH_DATE":"2021-12-02"},{"ECCENTRICITY":"0.00013140","MEAN_MOTION":"15.08840464","TLE_LINE1":"1 49727U 21115D   23020.06785615  .00001419  00000-0  10723-3 0  9995","INCLINATION":"53.2143","ARG_OF_PERICENTER":"67.9722","CLASSIFICATION_TYPE":"U","TIME_SYSTEM":"UTC","EPOCH":"2023-01-20T01:37:42.771360","MEAN_MOTION_DOT":"0.00001419","DECAY_DATE":null,"REV_AT_EPOCH":"6259","PERIAPSIS":"538.835","BSTAR":"0.00010723000000","ELEMENT_SET_NO":"999","FILE":"3755973","MEAN_ANOMALY":"292.1409","GP_ID":"223547890","SITE":"AFETR","MEAN_MOTION_DDOT":"0.0000000000000","MEAN_ELEMENT_THEORY":"SGP4","REF_FRAME":"TEME","TLE_LINE2":"2 49727  53.2143 257.5369 0001314  67.9722 292.1409 15.08840464 62597","OBJECT_TYPE":"PAYLOAD","NORAD_CAT_ID":"49727","OBJECT_NAME":"STARLINK-3242","APOAPSIS":"540.653","PERIOD":"95.438","RCS_SIZE":"LARGE","LAUNCH_DATE":"2021-12-02","EPHEMERIS_TYPE":"0","COUNTRY_CODE":"US","SEMIMAJOR_AXIS":"6917.879","OBJECT_ID":"2021-115D","CENTER_NAME":"EARTH","RA_OF_ASC_NODE":"257.5369"}];
